[{"OBJECT_NAME":"STARLINK-30339","OBJECT_ID":"2023-144U","EPOCH":"2026-03-09T22:00:01.999584","MEAN_MOTION":15.2672605,"ECCENTRICITY":0.00013718,"INCLINATION":43.0007,"RA_OF_ASC_NODE":283.9774,"ARG_OF_PERICENTER":271.6019,"MEAN_ANOMALY":8.7233,"EPHEMERIS_TYPE":0,"CLASSIFICATION_TYPE":"U","NORAD_CAT_ID":57882,"ELEMENT_SET_NO":999,"REV_AT_EPOCH":578,"BSTAR":0.00099307862,"MEAN_MOTION_DOT":0.00026462,"MEAN_MOTION_DDOT":0},{"OBJECT_NAME":"GEOSCAN 1 (RS92S1)","OBJECT_ID":"2025-155E","EPOCH":"2026-03-09T22:44:05.846496","MEAN_MOTION":15.28410635,"ECCENTRICITY":0.00087099,"INCLINATION":97.4463,"RA_OF_ASC_NODE":37.403,"ARG_OF_PERICENTER":153.6429,"MEAN_ANOMALY":206.5255,"EPHEMERIS_TYPE":0,"CLASSIFICATION_TYPE":"U","NORAD_CAT_ID":64880,"ELEMENT_SET_NO":999,"REV_AT_EPOCH":6560,"BSTAR":0.00054367431,"MEAN_MOTION_DOT":0.00014993,"MEAN_MOTION_DDOT":0}]
